      2.10          N: GNSS NAV DATA                        RINEX VERSION / TYPE
fic2rin                                 11/11/2021 00:17:40 PGM / RUN BY / DATE
                                                            END OF HEADER
16 21 11 10 22  0  0.0-4.219603724778e-04-6.366462912410e-12 0.000000000000e+00
    5.900000000000e+01 4.193750000000e+01 4.382325398586e-09-4.211315397162e-01
    2.238899469376e-06 1.239954563789e-02 8.171424269676e-06 5.153784523010e+03
    3.384000000000e+05 4.470348358154e-08-2.175117694131e+00 1.378357410431e-07
    9.715550960952e-01 2.266562500000e+02 6.817149124596e-01-8.062121534008e-09
   -4.746626287466e-10 1.000000000000e+00 2.183000000000e+03 0.000000000000e+00
    2.400000000000e+00 0.000000000000e+00-1.024454832077e-08 5.900000000000e+01
    3.312000000000e+05 4.000000000000e+00
32 21 11 10 22  0  0.0-2.041691914201e-05-4.661160346586e-12 0.000000000000e+00
    6.500000000000e+01-3.568750000000e+01 4.682337895311e-09-5.418094982775e-01
   -1.737847924232e-06 5.186708644032e-03 1.003593206406e-05 5.153737361908e+03
    3.384000000000e+05-7.450580596924e-09 1.916450215958e+00 1.396983861923e-07
    9.573517809958e-01 1.848437500000e+02-2.389129318517e+00-8.011762293487e-09
    3.518003681831e-10 1.000000000000e+00 2.183000000000e+03 0.000000000000e+00
    2.400000000000e+00 0.000000000000e+00 4.656612873077e-10 6.500000000000e+01
    3.312000000000e+05 4.000000000000e+00
27 21 11 10 22  0  0.0-2.175820991397e-04-4.774847184308e-12 0.000000000000e+00
    4.400000000000e+01 8.471875000000e+01 4.050525863518e-09-1.281538361148e+00
    4.366040229797e-06 9.664997924119e-03 7.430091500282e-06 5.153649463654e+03
    3.384000000000e+05 2.458691596985e-07-1.218226825957e+00-7.264316082001e-08
    9.742418665700e-01 2.440937500000e+02 6.282443189319e-01-7.882114035973e-09
   -9.036090675161e-11 1.000000000000e+00 2.183000000000e+03 0.000000000000e+00
    2.400000000000e+00 0.000000000000e+00 1.862645149231e-09 4.400000000000e+01
    3.312000000000e+05 4.000000000000e+00
22 21 11 10 22  0  0.0-4.678904078901e-04 9.094947017729e-12 0.000000000000e+00
    4.400000000000e+01-9.915625000000e+01 4.901275586373e-09-2.387320451034e+00
   -4.962086677551e-06 6.726487888955e-03 5.487352609634e-06 5.153690935135e+03
    3.384000000000e+05 2.980232238770e-08 7.711417034101e-01 1.676380634308e-07
    9.371184550880e-01 2.595937500000e+02-8.803495971801e-01-8.314274894351e-09
    4.321608583773e-11 1.000000000000e+00 2.183000000000e+03 0.000000000000e+00
    2.400000000000e+00 0.000000000000e+00-1.769512891769e-08 4.400000000000e+01
    3.312000000000e+05 4.000000000000e+00
25 21 11 10 22  0  0.0 2.385773696005e-04 5.911715561524e-12 0.000000000000e+00
    2.800000000000e+01 4.478125000000e+01 4.658765484854e-09 1.269078373340e+00
    2.326443791389e-06 9.999176487327e-03 8.329749107361e-06 5.153756517410e+03
    3.384000000000e+05-1.601874828339e-07-2.269366596616e+00 1.154839992523e-07
    9.590181748878e-01 2.192187500000e+02 9.617612077290e-01-8.148910863418e-09
   -4.168030758068e-10 1.000000000000e+00 2.183000000000e+03 0.000000000000e+00
    3.400000000000e+00 0.000000000000e+00 5.587935447693e-09 2.800000000000e+01
    3.312000000000e+05 4.000000000000e+00
21 21 11 10 22  0  0.0 1.506190747023e-04 1.136868377216e-12 0.000000000000e+00
    8.100000000000e+01 9.875000000000e+00 4.682337895311e-09-1.133760525425e+00
    6.593763828278e-07 2.420122933108e-02 4.190951585770e-06 5.153618974686e+03
    3.384000000000e+05-4.377216100693e-07-2.473026527824e-01-1.117587089539e-08
    9.589663012756e-01 3.060625000000e+02-1.060608905841e+00-8.693576408067e-09
    3.178703834345e-10 1.000000000000e+00 2.183000000000e+03 0.000000000000e+00
    2.400000000000e+00 0.000000000000e+00-1.024454832077e-08 8.100000000000e+01
    3.312000000000e+05 4.000000000000e+00
19 21 11 10 22  0  0.0 7.756892591715e-05 5.002220859751e-12 0.000000000000e+00
    6.900000000000e+01 5.987500000000e+01 4.069455223430e-09 1.127762767572e+00
    2.849847078323e-06 8.963308297098e-03 6.621703505516e-06 5.153665515900e+03
    3.384000000000e+05 5.401670932770e-08-1.111389299814e+00-2.104789018631e-07
    9.792952288799e-01 2.634375000000e+02 1.971343520725e+00-7.983189674751e-09
   -9.036090675161e-11 1.000000000000e+00 2.183000000000e+03 0.000000000000e+00
    2.400000000000e+00 0.000000000000e+00-1.583248376846e-08 6.900000000000e+01
    3.312000000000e+05 4.000000000000e+00
20 21 11 10 22  0  0.0 5.181953310966e-04-2.273736754432e-13 0.000000000000e+00
    3.800000000000e+01-8.425000000000e+01 4.805200155874e-09-2.350383797137e+00
   -4.343688488007e-06 5.513318348676e-03 6.005167961121e-06 5.153691360474e+03
    3.384000000000e+05-1.173466444016e-07 7.251620638307e-01-7.636845111847e-08
    9.404416695361e-01 2.515625000000e+02 3.026968032066e+00-8.280344909602e-09
    1.035757429169e-10 1.000000000000e+00 2.183000000000e+03 0.000000000000e+00
    2.400000000000e+00 0.000000000000e+00-8.381903171539e-09 3.800000000000e+01
    3.312000000000e+05 4.000000000000e+00
17 21 11 10 22  0  0.0 5.318634212017e-04 5.343281372916e-12 0.000000000000e+00
    6.400000000000e+01 6.759375000000e+01 4.067312277025e-09-1.241236739658e+00
    3.706663846970e-06 1.374057901558e-02 7.184222340584e-06 5.153700012207e+03
    3.384000000000e+05-1.545995473862e-07-1.156378385859e+00 2.700835466385e-07
    9.806011714605e-01 2.563125000000e+02-1.539146698335e+00-8.032477442070e-09
   -7.500312418118e-11 1.000000000000e+00 2.183000000000e+03 0.000000000000e+00
    2.400000000000e+00 0.000000000000e+00-1.117587089539e-08 6.400000000000e+01
    3.312000000000e+05 4.000000000000e+00
18 21 11 10 22  0  0.0 2.975496463478e-04-5.798028723802e-12 0.000000000000e+00
    1.730000000000e+02-1.353125000000e+01 4.356967199458e-09 3.027152093493e+00
   -6.668269634247e-07 2.074231859297e-03 3.248453140259e-06 5.153643487930e+03
    3.384000000000e+05-4.470348358154e-08-1.498326182728e-01-5.774199962616e-08
    9.700947717697e-01 3.221562500000e+02 3.038211272872e+00-8.216056517447e-09
    7.786038605475e-11 1.000000000000e+00 2.183000000000e+03 0.000000000000e+00
    2.400000000000e+00 0.000000000000e+00-8.381903171539e-09 1.730000000000e+02
    3.312000000000e+05 4.000000000000e+00
11 21 11 10 22  0  0.0 1.992890611291e-05-1.364242052659e-12 0.000000000000e+00
    4.000000000000e+01-1.856250000000e+01 4.419826960677e-09-9.292141273039e-01
   -8.065253496170e-07 4.197555826977e-04 3.701075911522e-06 5.153733598709e+03
    3.384000000000e+05-1.676380634308e-08-1.130818515244e-01-1.303851604462e-08
    9.613823777778e-01 3.085312500000e+02 2.476165018144e+00-8.223556829865e-09
    7.857470152314e-11 1.000000000000e+00 2.183000000000e+03 0.000000000000e+00
    1.536000000000e+03 6.300000000000e+01-8.847564458847e-09 8.080000000000e+02
    3.312000000000e+05 4.000000000000e+00
23 21 11 10 22  0  0.0 3.448175266385e-05-4.433786671143e-12 0.000000000000e+00
    1.920000000000e+02-1.011562500000e+02 4.300179119721e-09 2.265667881819e+00
   -5.260109901428e-06 1.875721267425e-03 7.092952728271e-06 5.153691108704e+03
    3.384000000000e+05-1.862645149231e-09 8.493172396893e-01 6.519258022308e-08
    9.661326805155e-01 2.425000000000e+02 2.783770862842e+00-8.035334703943e-09
    3.785871982478e-11 1.000000000000e+00 2.183000000000e+03 0.000000000000e+00
    2.400000000000e+00 0.000000000000e+00-8.381903171539e-09 4.480000000000e+02
    3.312000000000e+05 4.000000000000e+00
28 21 11 10 22  0  0.0 4.653539508581e-04-7.503331289627e-12 0.000000000000e+00
    4.600000000000e+01 3.396875000000e+01 4.471614832135e-09-7.848606200009e-01
    1.799315214157e-06 1.737683627289e-02 8.644536137581e-06 5.153712965012e+03
    3.384000000000e+05-2.607703208923e-07-2.171630014044e+00-2.235174179077e-08
    9.706771448279e-01 2.224375000000e+02-1.315456738556e+00-8.256415341411e-09
   -2.864405028253e-10 1.000000000000e+00 2.183000000000e+03 0.000000000000e+00
    2.400000000000e+00 6.300000000000e+01-1.117587089539e-08 4.600000000000e+01
    3.312000000000e+05 4.000000000000e+00
20 21 11 10 21 59 44.0 5.181948654354e-04-2.273736754432e-13 0.000000000000e+00
    1.500000000000e+01-8.425000000000e+01 4.805200155874e-09-2.352718336437e+00
   -4.343688488007e-06 5.513319396414e-03 6.007030606270e-06 5.153691350937e+03
    3.383840000000e+05-1.173466444016e-07 7.251622071967e-01-7.636845111847e-08
    9.404416432036e-01 2.515625000000e+02 3.026968886410e+00-8.280344909602e-09
    1.035757429169e-10 1.000000000000e+00 2.183000000000e+03 0.000000000000e+00
    2.400000000000e+00 0.000000000000e+00-8.381903171539e-09 1.500000000000e+01
    3.364500000000e+05 4.000000000000e+00
20 21 11 10 23 59 44.0 5.181934684515e-04-2.273736754432e-13 0.000000000000e+00
    1.600000000000e+01-8.881250000000e+01 4.893060958486e-09-1.302898953211e+00
   -4.587695002556e-06 5.513388081454e-03 5.334615707397e-06 5.153687763214e+03
    3.455840000000e+05-4.284083843231e-08 7.251022260925e-01-1.396983861923e-07
    9.404424858444e-01 2.659375000000e+02 3.027322620001e+00-8.317846471693e-09
    1.239337337660e-10 1.000000000000e+00 2.183000000000e+03 0.000000000000e+00
    2.400000000000e+00 0.000000000000e+00-8.381903171539e-09 1.600000000000e+01
    3.384000000000e+05 4.000000000000e+00
 1 21 11 11  0  0  0.0 5.143182352185e-04-1.057287590811e-11 0.000000000000e+00
    2.800000000000e+01-2.625000000000e+00 3.968736742387e-09-2.450483083108e+00
   -6.146728992462e-08 1.109752140474e-02 3.283843398094e-06 5.153674615860e+03
    3.456000000000e+05 3.911554813385e-08-1.591293909836e-01-8.940696716309e-08
    9.863352149236e-01 3.300937500000e+02 8.881669457069e-01-7.901400553620e-09
    1.464346710204e-10 1.000000000000e+00 2.183000000000e+03 0.000000000000e+00
    2.400000000000e+00 0.000000000000e+00 5.122274160385e-09 2.800000000000e+01
    3.384000000000e+05 4.000000000000e+00
